IRIDIUM 159             
1 43578U 18061K   25358.92447227 -.00000029  00000+0 -17576-4 0  9995
2 43578  86.3988 129.5771 0001807  92.4915 267.6488 14.34217776388405
IRIDIUM 180             
1 43922U 19002A   25359.13327397 -.00000014  00000+0 -12235-4 0  9994
2 43922  86.3955  66.3593 0001888  96.7880 263.3531 14.34217747364043
IRIDIUM 176             
1 43923U 19002B   25359.09369076  .00000993  00000+0  15354-3 0  9998
2 43923  86.6077  66.3456 0002252  93.3699 266.7775 14.72247831373638
IRIDIUM 168             
1 43924U 19002C   25358.91762567  .00000190  00000+0  60765-4 0  9997
2 43924  86.3960  66.5224 0002169  98.5362 261.6080 14.34218200363990
IRIDIUM 173             
1 43925U 19002D   25359.18400771  .00000300  00000+0  10009-3 0  9992
2 43925  86.3957  66.3070 0002166 101.8971 258.2468 14.34220046364012
IRIDIUM 169             
1 43926U 19002E   25359.15414992  .00000455  00000+0  14239-3 0  9990
2 43926  86.4222  97.9727 0002660 119.0417 241.1048 14.38607855365201
IRIDIUM 172             
1 43927U 19002F   25359.17767220  .00000120  00000+0  35952-4 0  9993
2 43927  86.3958  66.3170 0002004  95.6444 264.4980 14.34217622364027
IRIDIUM 175             
1 43928U 19002G   25359.02101809  .00000917  00000+0  14142-3 0  9994
2 43928  86.1499   8.0860 0003186  80.9101 279.2476 14.72243113373619
